[{"OBJECT_NAME":"ONEWEB-0563","OBJECT_ID":"2023-029E","EPOCH":"2026-03-09T16:08:05.171712","MEAN_MOTION":13.20772118,"ECCENTRICITY":0.00015351,"INCLINATION":87.9161,"RA_OF_ASC_NODE":294.3602,"ARG_OF_PERICENTER":95.2144,"MEAN_ANOMALY":264.9165,"EPHEMERIS_TYPE":0,"CLASSIFICATION_TYPE":"U","NORAD_CAT_ID":55800,"ELEMENT_SET_NO":999,"REV_AT_EPOCH":14800,"BSTAR":-8.4194183e-5,"MEAN_MOTION_DOT":-2.1e-7,"MEAN_MOTION_DDOT":0},{"OBJECT_NAME":"SL-14 DEB","OBJECT_ID":"1991-056P","EPOCH":"2026-03-09T18:19:07.911264","MEAN_MOTION":13.39587361,"ECCENTRICITY":0.01218597,"INCLINATION":82.5429,"RA_OF_ASC_NODE":182.2354,"ARG_OF_PERICENTER":135.4895,"MEAN_ANOMALY":225.6109,"EPHEMERIS_TYPE":0,"CLASSIFICATION_TYPE":"U","NORAD_CAT_ID":45277,"ELEMENT_SET_NO":999,"REV_AT_EPOCH":29375,"BSTAR":0.010407537,"MEAN_MOTION_DOT":5.889e-5,"MEAN_MOTION_DDOT":0}]
